NORAD_CAT_ID,OBJECT_NAME,OBJECT_TYPE,EPOCH,MEAN_MOTION,ECCENTRICITY,INCLINATION,RA_OF_ASC_NODE,ARG_OF_PERICENTER,MEAN_ANOMALY,BSTAR,MEAN_MOTION_DOT,MEAN_MOTION_DDOT,TLE_LINE0,TLE_LINE1,TLE_LINE2,SEMIMAJOR_AXIS,PERIOD,APOGEE,PERIGEE,DECAYED
52380.0,STARLINK-3793,PAYLOAD,2022-09-15 14:00:01,15.08827292,0.0001756,53.2125,125.3357,43.989,25.9645,0.0027555999999999,0.00043825,0.0,0 STARLINK-3793,1 52380U 22045BB  22258.58334491  .00043825  00000-0  27556-2 0  9996,2 52380  53.2125 125.3357 0001756  43.9890  25.9645 15.08827292  1305,6917.919,95.438,540.999,538.569,0.0
52380.0,STARLINK-3793,PAYLOAD,2022-09-15 21:38:25,15.08840812,0.0002246,53.2123,123.9056,66.3161,293.8066,8.7435e-05,1.104e-05,0.0,0 STARLINK-3793,1 52380U 22045BB  22258.90168939  .00001104  00000-0  87435-4 0  9992,2 52380  53.2123 123.9056 0002246  66.3161 293.8066 15.08840812 24219,6917.878000000002,95.438,541.297,538.189,0.0
52380.0,STARLINK-3793,PAYLOAD,2022-09-16 00:49:12,15.08845132,0.0001896999999999,53.2144,123.3128,44.525,315.5895,7.6835e-05,9.35e-06,0.0,0 STARLINK-3793,1 52380U 22045BB  22259.03416672  .00000935  00000-0  76835-4 0  9990,2 52380  53.2144 123.3128 0001897  44.5250 315.5895 15.08845132 24238,6917.865,95.437,541.0419999999998,538.4169999999998,0.0
52380.0,STARLINK-3793,PAYLOAD,2022-09-16 15:07:40,15.08834523,0.0002045999999999,53.2143,120.6388,44.9493,315.1664,5.389899999999999e-05,5.700000000000001e-06,0.0,0 STARLINK-3793,1 52380U 22045BB  22259.63033535  .00000570  00000-0  53899-4 0  9999,2 52380  53.2143 120.6388 0002046  44.9493 315.1664 15.08834523 24327,6917.897,95.438,541.178,538.347,0.0
52380.0,STARLINK-3793,PAYLOAD,2022-09-16 18:18:27,15.08828401,0.000186,53.2135,120.0417,40.1263,319.9866,-1.2688e-06,-3.08e-06,0.0,0 STARLINK-3793,1 52380U 22045BB  22259.76282065 -.00000308  00000-0 -12688-5 0  9990,2 52380  53.2135 120.0417 0001860  40.1263 319.9866 15.08828401 24347,6917.916,95.438,541.068,538.494,0.0
52380.0,STARLINK-3793,PAYLOAD,2022-09-17 02:15:23,15.0882747,0.0002012,53.2136,118.5558,40.0144,320.0996,-9.551e-05,-1.807e-05,0.0,0 STARLINK-3793,1 52380U 22045BB  22260.09402628 -.00001807  00000-0 -95510-4 0  9996,2 52380  53.2136 118.5558 0002012  40.0144 320.0996 15.08827470 24390,6917.919,95.438,541.1759999999998,538.3919999999998,0.0
52380.0,STARLINK-3793,PAYLOAD,2022-09-17 21:20:00,15.08838046,0.0001810999999999,53.2145,114.9865,38.3061,321.806,-1.7772000000000002e-05,-5.71e-06,0.0,0 STARLINK-3793,1 52380U 22045BB  22260.88890025 -.00000571  00000-0 -17772-4 0  9996,2 52380  53.2145 114.9865 0001811  38.3061 321.8060 15.08838046 24511,6917.886,95.438,541.004,538.499,0.0
52380.0,STARLINK-3793,PAYLOAD,2022-09-18 13:13:51,15.08858644,0.0001916,53.2145,112.0125,37.529,322.5836,-0.00017169,-3.021e-05,0.0,0 STARLINK-3793,1 52380U 22045BB  22261.55129022 -.00003021  00000-0 -17169-3 0  9995,2 52380  53.2145 112.0125 0001916  37.5290 322.5836 15.08858644 24616,6917.823,95.436,541.014,538.363,0.0
52380.0,STARLINK-3793,PAYLOAD,2022-09-18 21:10:48,15.08828891,0.0001784,53.2147,110.5255,36.5114,323.6,5.523300000000001e-05,5.91e-06,0.0,0 STARLINK-3793,1 52380U 22045BB  22261.88250473  .00000591  00000-0  55233-4 0  9998,2 52380  53.2147 110.5255 0001784  36.5114 323.6000 15.08828891 24663,6917.9140000000025,95.438,541.014,538.545,0.0
52380.0,STARLINK-3793,PAYLOAD,2022-09-19 00:21:34,15.08828906,0.0001754,53.2144,109.9308,38.0252,322.0864,5.5312e-05,5.92e-06,0.0,0 STARLINK-3793,1 52380U 22045BB  22262.01498554  .00000592  00000-0  55312-4 0  9997,2 52380  53.2144 109.9308 0001754  38.0252 322.0864 15.08828906 24688,6917.9140000000025,95.438,540.993,538.566,0.0
52380.0,STARLINK-3793,PAYLOAD,2022-09-19 16:15:25,15.08839815,0.0001855999999999,53.2141,106.9562,35.8631,324.2486,3.972e-05,3.44e-06,0.0,0 STARLINK-3793,1 52380U 22045BB  22262.67738187  .00000344  00000-0  39720-4 0  9998,2 52380  53.2141 106.9562 0001856  35.8631 324.2486 15.08839815 24789,6917.880999999999,95.438,541.03,538.462,0.0
52380.0,STARLINK-3793,PAYLOAD,2022-09-20 00:12:21,15.08835947,0.0001824,53.2141,105.4693,36.3628,323.7488,6.0989e-06,-1.91e-06,0.0,0 STARLINK-3793,1 52380U 22045BB  22263.00858574 -.00000191  00000-0  60989-5 0  9992,2 52380  53.2141 105.4693 0001824  36.3628 323.7488 15.08835947 24839,6917.893,95.438,541.02,538.496,0.0
52380.0,STARLINK-3793,PAYLOAD,2022-09-21 15:56:59,15.08843559,0.0001916999999999,53.2145,98.035,43.2291,316.8852,7.348600000000001e-05,8.82e-06,0.0,0 STARLINK-3793,1 52380U 22045BB  22264.66458152  .00000882  00000-0  73486-4 0  9994,2 52380  53.2145  98.0350 0001917  43.2291 316.8852 15.08843559 25080,6917.87,95.437,541.061,538.408,0.0
52380.0,STARLINK-3793,PAYLOAD,2022-09-22 01:29:19,15.08818729,0.0001054,53.2178,96.2467,53.0053,307.1036,0.00036847,5.578e-05,0.0,0 STARLINK-3793,1 52380U 22045BB  22265.06202734  .00005578  00000-0  36847-3 0  9998,2 52380  53.2178  96.2467 0001054  53.0053 307.1036 15.08818729 25147,6917.945,95.439,540.54,539.081,0.0
52380.0,STARLINK-3793,PAYLOAD,2022-09-22 18:58:33,15.08842638,0.0002086999999999,53.2146,92.9793,46.4521,313.6644,-4.290299999999999e-06,-3.57e-06,0.0,0 STARLINK-3793,1 52380U 22045BB  22265.79066829 -.00000357  00000-0 -42903-5 0  9995,2 52380  53.2146  92.9793 0002087  46.4521 313.6644 15.08842638 25255,6917.871999999999,95.437,541.181,538.294,0.0
52380.0,STARLINK-3793,PAYLOAD,2022-09-23 18:49:20,15.08837609,0.0002311999999999,53.2141,88.5192,42.2793,317.8377,2.8861e-05,1.71e-06,0.0,0 STARLINK-3793,1 52380U 22045BB  22266.78426690  .00000171  00000-0  28861-4 0  9999,2 52380  53.2141  88.5192 0002312  42.2793 317.8377 15.08837609 25408,6917.888000000001,95.438,541.352,538.153,0.0
52380.0,STARLINK-3793,PAYLOAD,2022-09-23 22:00:07,15.08834732,0.0002638999999999,53.2149,87.928,38.4993,321.6187,-4.7205e-05,-1.04e-05,0.0,0 STARLINK-3793,1 52380U 22045BB  22266.91675190 -.00001040  00000-0 -47205-4 0  9996,2 52380  53.2149  87.9280 0002639  38.4993 321.6187 15.08834732 25426,6917.896,95.438,541.587,537.936,0.0
52380.0,STARLINK-3793,PAYLOAD,2022-09-24 18:40:08,15.08837914,0.0001908,53.2147,84.0579,44.1355,315.9789,1.8062e-05,-1e-08,0.0,0 STARLINK-3793,1 52380U 22045BB  22267.77787436 -.00000001  00000-0  18062-4 0  9992,2 52380  53.2147  84.0579 0001908  44.1355 315.9789 15.08837914 25550,6917.887,95.438,541.072,538.432,0.0
52380.0,STARLINK-3793,PAYLOAD,2022-09-25 18:30:54,15.08844993,0.0001994,53.2156,79.6012,48.4772,311.6391,0.00010927,1.452e-05,0.0,0 STARLINK-3793,1 52380U 22045BB  22268.77146755  .00001452  00000-0  10927-3 0  9997,2 52380  53.2156  79.6012 0001994  48.4772 311.6391 15.08844993 25701,6917.865,95.437,541.11,538.351,0.0
52380.0,STARLINK-3793,PAYLOAD,2022-09-25 23:17:03,15.08849386,0.0002012,53.215,78.7049,44.8847,315.2307,8.945200000000001e-05,1.136e-05,0.0,0 STARLINK-3793,1 52380U 22045BB  22268.97018481  .00001136  00000-0  89452-4 0  9992,2 52380  53.2150  78.7049 0002012  44.8847 315.2307 15.08849386 25731,6917.852,95.437,541.109,538.325,0.0
52380.0,STARLINK-3793,PAYLOAD,2022-09-26 18:21:42,15.0884087,0.000183,53.2169,75.1349,60.4247,299.6927,-1.3764e-06,-3.1e-06,0.0,0 STARLINK-3793,1 52380U 22045BB  22269.76507344 -.00000310  00000-0 -13764-5 0  9990,2 52380  53.2169  75.1349 0001830  60.4247 299.6927 15.08840870 25855,6917.878000000002,95.437,541.009,538.477,0.0
52380.0,STARLINK-3793,PAYLOAD,2022-09-27 03:54:00,15.0884539,0.0001774,53.216,73.3519,51.1529,308.9621,0.00010698,1.415e-05,0.0,0 STARLINK-3793,1 52380U 22045BB  22270.16250850  .00001415  00000-0  10698-3 0  9999,2 52380  53.2160  73.3519 0001774  51.1529 308.9621 15.08845390 25916,6917.864000000001,95.437,540.956,538.502,0.0
52380.0,STARLINK-3793,PAYLOAD,2022-09-28 10:06:20,15.08846554,0.0002587,53.2135,67.7008,55.6771,304.4466,6.14e-05,6.89e-06,0.0,0 STARLINK-3793,1 52380U 22045BB  22271.42106835  .00000689  00000-0  61400-4 0  9992,2 52380  53.2135  67.7008 0002587  55.6771 304.4466 15.08846554 26102,6917.86,95.437,541.515,537.936,0.0
52380.0,STARLINK-3793,PAYLOAD,2022-09-29 09:57:08,15.088108600000002,0.0002466,53.2138,63.2403,56.4951,303.6277,0.00043835,6.69e-05,0.0,0 STARLINK-3793,1 52380U 22045BB  22272.41467837  .00006690  00000-0  43835-3 0  9993,2 52380  53.2138  63.2403 0002466  56.4951 303.6277 15.08810860 26258,6917.969,95.439,541.54,538.128,0.0
52380.0,STARLINK-3793,PAYLOAD,2022-09-29 19:29:26,15.08891301,0.0002446,53.2142,61.4561,62.5793,297.5447,-0.00073465,-0.00011978,0.0,0 STARLINK-3793,1 52380U 22045BB  22272.81211304 -.00011978  00000-0 -73465-3 0  9992,2 52380  53.2142  61.4561 0002446  62.5793 297.5447 15.08891301 26314,6917.724,95.434,541.281,537.8969999999998,0.0
52380.0,STARLINK-3793,PAYLOAD,2022-09-30 09:47:54,15.08845777,0.000177,53.2169,58.7791,34.9612,325.1496,1.536e-05,-4.4e-07,0.0,0 STARLINK-3793,1 52380U 22045BB  22273.40826640 -.00000044  00000-0  15360-4 0  9995,2 52380  53.2169  58.7791 0001770  34.9612 325.1496 15.08845777 26407,6917.863,95.437,540.952,538.503,0.0
52380.0,STARLINK-3793,PAYLOAD,2022-09-30 16:09:27,15.08826239,0.000153,53.2167,57.5895,34.553000000000004,325.5561,0.00033388,5.028e-05,0.0,0 STARLINK-3793,1 52380U 22045BB  22273.67323109  .00005028  00000-0  33388-3 0  9991,2 52380  53.2167  57.5895 0001530  34.5530 325.5561 15.08826239 26449,6917.922,95.438,540.846,538.729,0.0
52380.0,STARLINK-3793,PAYLOAD,2022-09-30 19:20:12,15.08846283,0.0001748,53.2166,56.995,33.798,326.3123,7.5251e-05,9.1e-06,0.0,0 STARLINK-3793,1 52380U 22045BB  22273.80570356  .00000910  00000-0  75251-4 0  9995,2 52380  53.2166  56.9950 0001748  33.7980 326.3123 15.08846283 26460,6917.861,95.437,540.935,538.5169999999998,0.0
52380.0,STARLINK-3793,PAYLOAD,2022-10-01 12:49:27,15.08843096,0.000174,53.2166,53.7232,38.2162,321.8953,5.7925e-05,6.34e-06,0.0,0 STARLINK-3793,1 52380U 22045BB  22274.53434423  .00000634  00000-0  57925-4 0  9991,2 52380  53.2166  53.7232 0001740  38.2162 321.8953 15.08843096 26574,6917.871,95.437,540.94,538.5319999999998,0.0
